NORAD_CAT_ID,OBJECT_NAME,OBJECT_TYPE,EPOCH,MEAN_MOTION,ECCENTRICITY,INCLINATION,RA_OF_ASC_NODE,ARG_OF_PERICENTER,MEAN_ANOMALY,BSTAR,MEAN_MOTION_DOT,MEAN_MOTION_DDOT,TLE_LINE0,TLE_LINE1,TLE_LINE2,SEMIMAJOR_AXIS,PERIOD,APOGEE,PERIGEE,DECAYED
53539.0,STARLINK-4123,PAYLOAD,2022-10-04 06:00:00,15.10531598,0.0001651,53.2175,296.5355,42.9048,276.676,-0.073619,-0.01131455,0.0,0 STARLINK-4123,1 53539U 22101N   22277.25001157 -.01131455  00000-0 -73619-1 0  9991,2 53539  53.2175 296.5355 0001651  42.9048 276.6760 15.10531598  7093,6912.715,95.331,535.721,533.438,0.0
53539.0,STARLINK-4123,PAYLOAD,2022-10-04 14:00:01,15.09641755,0.000156,53.2165,295.0373,49.5841,283.1401,-0.0553769999999999,-0.00839171,0.0,0 STARLINK-4123,1 53539U 22101N   22277.58334491 -.00839171  00000-0 -55377-1 0  9997,2 53539  53.2165 295.0373 0001560  49.5841 283.1401 15.09641755  1307,6915.431,95.387,538.375,536.217,0.0
53539.0,STARLINK-4123,PAYLOAD,2022-10-04 22:00:00,15.08958061,0.0001639,53.217,293.5392,48.6187,296.2964,-0.012175,-0.0018961,0.0,0 STARLINK-4123,1 53539U 22101N   22277.91667824 -.00189610  00000-0 -12175-1 0  9998,2 53539  53.2170 293.5392 0001639  48.6187 296.2964 15.08958061  7199,6917.52,95.43,540.518,538.251,0.0
53539.0,STARLINK-4123,PAYLOAD,2022-10-05 06:00:00,15.08836736,0.0001855999999999,53.2174,292.0454,42.7177,313.8467,3.4451e-05,2.6e-06,0.0,0 STARLINK-4123,1 53539U 22101N   22278.25001157  .00000260  00000-0  34451-4 0  9992,2 53539  53.2174 292.0454 0001856  42.7177 313.8467 15.08836736  7245,6917.89,95.438,541.039,538.471,0.0
53539.0,STARLINK-4123,PAYLOAD,2022-10-05 14:00:01,15.08874808,0.0002119,53.2152,290.5387,50.5473,317.5613,-0.0004927,-8.129e-05,0.0,0 STARLINK-4123,1 53539U 22101N   22278.58335648 -.00008129  00000-0 -49270-3 0  9991,2 53539  53.2152 290.5387 0002119  50.5473 317.5613 15.08874808  7299,6917.774,95.435,541.105,538.173,0.0
53539.0,STARLINK-4123,PAYLOAD,2022-10-05 22:00:00,15.08832989,0.0001902,53.2154,289.0406,55.7571,323.9356,0.0010764,0.00016881,0.0,0 STARLINK-4123,1 53539U 22101N   22278.91667824  .00016881  00000-0  10764-2 0  9999,2 53539  53.2154 289.0406 0001902  55.7571 323.9356 15.08832989  1306,6917.901999999999,95.438,541.0830000000002,538.451,0.0
53539.0,STARLINK-4123,PAYLOAD,2022-10-06 14:00:01,15.08852441,0.0001979,53.2151,286.0491,48.9526,353.9632,0.00071192,0.00011064,0.0,0 STARLINK-4123,1 53539U 22101N   22279.58334491  .00011064  00000-0  71192-3 0  9995,2 53539  53.2151 286.0491 0001979  48.9526 353.9632 15.08852441  1307,6917.842,95.437,541.076,538.3380000000002,0.0
53539.0,STARLINK-4123,PAYLOAD,2022-10-06 22:42:55,15.08854866,0.0001764,53.2153,284.4173,55.7718,160.67600000000004,0.00039435,5.996e-05,0.0,0 STARLINK-4123,1 53539U 22101N   22279.94646991  .00005996  00000-0  39435-3 0  9997,2 53539  53.2153 284.4173 0001764  55.7718 160.6760 15.08854866  7493,6917.835,95.437,540.92,538.48,0.0
53539.0,STARLINK-4123,PAYLOAD,2022-10-07 14:00:01,15.0885685,0.0001761,53.2155,281.5594,46.1388,31.617,-0.0027288,-0.00043476,0.0,0 STARLINK-4123,1 53539U 22101N   22280.58334491 -.00043476  00000-0 -27288-2 0  9997,2 53539  53.2155 281.5594 0001761  46.1388  31.6170 15.08856850  1305,6917.829000000002,95.436,540.9119999999998,538.476,0.0
53539.0,STARLINK-4123,PAYLOAD,2022-10-07 22:00:00,15.088007,0.0001517,53.2162,280.0614,52.605,36.7559,0.0038049,0.00060724,0.0,0 STARLINK-4123,1 53539U 22101N   22280.91667824  .00060724  00000-0  38049-2 0  9993,2 53539  53.2162 280.0614 0001517  52.6050  36.7559 15.08800700  1307,6918.001,95.44,540.915,538.816,0.0
53539.0,STARLINK-4123,PAYLOAD,2022-10-08 06:00:00,15.08853355,0.0001651,53.2168,278.5667,48.3294,52.6031,-0.0022224,-0.00035497,0.0,0 STARLINK-4123,1 53539U 22101N   22281.25001157 -.00035497  00000-0 -22224-2 0  9991,2 53539  53.2168 278.5667 0001651  48.3294  52.6031 15.08853355  7698,6917.84,95.437,540.847,538.562,0.0
53539.0,STARLINK-4123,PAYLOAD,2022-10-08 14:00:01,15.08835049,0.0001602,53.2164,277.0699,45.4886,67.0408,-0.00030824,-5.19e-05,0.0,0 STARLINK-4123,1 53539U 22101N   22281.58334491 -.00005190  00000-0 -30824-3 0  9990,2 53539  53.2164 277.0699 0001602  45.4886  67.0408 15.08835049  1304,6917.896,95.438,540.869,538.6519999999998,0.0
53539.0,STARLINK-4123,PAYLOAD,2022-10-08 22:00:00,15.08829612,0.0001471,53.2164,275.5721,54.3656,69.7536,0.0020656,0.0003273,0.0,0 STARLINK-4123,1 53539U 22101N   22281.91667824  .00032730  00000-0  20656-2 0  9995,2 53539  53.2164 275.5721 0001471  54.3656  69.7536 15.08829612  7790,6917.9119999999975,95.438,540.795,538.76,0.0
53539.0,STARLINK-4123,PAYLOAD,2022-10-09 14:00:01,15.08863238,0.0001621999999999,53.2161,272.5805,49.7685,97.5366,-0.0033945,-0.00053942,0.0,0 STARLINK-4123,1 53539U 22101N   22282.58334491 -.00053942  00000-0 -33945-2 0  9995,2 53539  53.2161 272.5805 0001622  49.7685  97.5366 15.08863238  1308,6917.809,95.436,540.7959999999998,538.552,0.0
53539.0,STARLINK-4123,PAYLOAD,2022-10-09 22:00:00,15.08824878,0.0001462,53.2162,271.0845,57.4882,101.4194,0.0023139,0.00036715,0.0,0 STARLINK-4123,1 53539U 22101N   22282.91667824  .00036715  00000-0  23139-2 0  9992,2 53539  53.2162 271.0845 0001462  57.4882 101.4194 15.08824878  1305,6917.927,95.439,540.803,538.78,0.0
53539.0,STARLINK-4123,PAYLOAD,2022-10-10 06:00:00,15.08870966,0.000152,53.2169,269.594,54.6566,115.8408,-0.0082745,-0.00129724,0.0,0 STARLINK-4123,1 53539U 22101N   22283.25001157 -.00129724  00000-0 -82745-2 0  9994,2 53539  53.2169 269.5940 0001520  54.6566 115.8408 15.08870966  7990,6917.786,95.436,540.702,538.599,0.0
53539.0,STARLINK-4123,PAYLOAD,2022-10-10 14:00:01,15.08782343,0.0001423,53.2169,268.1011,56.971,125.0984,0.0053618,0.00085951,0.0,0 STARLINK-4123,1 53539U 22101N   22283.58334491  .00085951  00000-0  53618-2 0  9998,2 53539  53.2169 268.1011 0001423  56.9710 125.0984 15.08782343  1304,6918.057,95.441,540.906,538.937,0.0
53539.0,STARLINK-4123,PAYLOAD,2022-10-10 22:00:01,15.0890551,0.0001494,53.2168,266.5989,58.6353,135.1184,-0.01329,-0.00206174,0.0,0 STARLINK-4123,1 53539U 22101N   22283.91668981 -.00206174  00000-0 -13290-1 0  9994,2 53539  53.2168 266.5989 0001494  58.6353 135.1184 15.08905510  1306,6917.68,95.433,540.5790000000002,538.512,0.0
53539.0,STARLINK-4123,PAYLOAD,2022-10-11 06:00:00,15.08831459,0.000176,53.2167,265.101,54.7098,150.5714,-0.001955,-0.0003126,0.0,0 STARLINK-4123,1 53539U 22101N   22284.25001157 -.00031260  00000-0 -19550-2 0  9996,2 53539  53.2167 265.1010 0001760  54.7098 150.5714 15.08831459  8143,6917.906,95.438,540.989,538.554,0.0
53539.0,STARLINK-4123,PAYLOAD,2022-10-11 14:00:01,15.08825934,0.0001684,53.2168,263.6079,51.2081,165.6393,-0.00068598,-0.00011185,0.0,0 STARLINK-4123,1 53539U 22101N   22284.58334491 -.00011185  00000-0 -68598-3 0  9993,2 53539  53.2168 263.6079 0001684  51.2081 165.6393 15.08825934  1303,6917.9230000000025,95.438,540.953,538.623,0.0
53539.0,STARLINK-4123,PAYLOAD,2022-10-11 22:00:00,15.088148,0.0001594,53.2169,262.1041,60.6553,167.75599999999997,0.0028967,0.00046083,0.0,0 STARLINK-4123,1 53539U 22101N   22284.91667824  .00046083  00000-0  28967-2 0  9997,2 53539  53.2169 262.1041 0001594  60.6553 167.7560 15.08814800  8244,6917.956999999999,95.439,540.925,538.72,0.0
53539.0,STARLINK-4123,PAYLOAD,2022-10-12 14:00:01,15.08833232,0.0001719,53.2172,259.1183,52.5079,199.0786,0.0011075,0.00017379,0.0,0 STARLINK-4123,1 53539U 22101N   22285.58334491  .00017379  00000-0  11075-2 0  9990,2 53539  53.2172 259.1183 0001719  52.5079 199.0786 15.08833232  1301,6917.901,95.438,540.955,538.577,0.0
53539.0,STARLINK-4123,PAYLOAD,2022-10-12 22:00:00,15.08857458,0.000178,53.2172,257.6245,60.3306,202.8464,-0.0019172,-0.00030686,0.0,0 STARLINK-4123,1 53539U 22101N   22285.91667824 -.00030686  00000-0 -19172-2 0  9990,2 53539  53.2172 257.6245 0001780  60.3306 202.8464 15.08857458  1303,6917.8269999999975,95.436,540.923,538.461,0.0
53539.0,STARLINK-4123,PAYLOAD,2022-10-13 06:00:00,15.08816776,0.0001785,53.2178,256.1256,57.297,217.4738,0.0026717,0.00042462,0.0,0 STARLINK-4123,1 53539U 22101N   22286.25001157  .00042462  00000-0  26717-2 0  9995,2 53539  53.2178 256.1256 0001785  57.2970 217.4738 15.08816776  8448,6917.951,95.439,541.0509999999998,538.582,0.0
53539.0,STARLINK-4123,PAYLOAD,2022-10-13 14:00:01,15.08880967,0.0001504,53.2175,254.6323,59.2602,227.0864,-0.0039678,-0.00062954,0.0,0 STARLINK-4123,1 53539U 22101N   22286.58334491 -.00062954  00000-0 -39678-2 0  9991,2 53539  53.2175 254.6323 0001504  59.2602 227.0864 15.08880967  1304,6917.755,95.435,540.661,538.58,0.0
53539.0,STARLINK-4123,PAYLOAD,2022-10-13 20:00:01,15.08837419,0.0001353,53.2173,253.5118,65.3892,139.7395,-0.00013948,-2.507e-05,0.0,0 STARLINK-4123,1 53539U 22101N   22286.83335648 -.00002507  00000-0 -13948-3 0  9995,2 53539  53.2173 253.5118 0001353  65.3892 139.7395 15.08837419  8537,6917.888000000001,95.438,540.689,538.817,0.0
53539.0,STARLINK-4123,PAYLOAD,2022-10-13 22:00:00,15.08897342,0.0001786,53.2174,253.1355,59.6013,238.3309,-0.0056706,-0.00089557,0.0,0 STARLINK-4123,1 53539U 22101N   22286.91667824 -.00089557  00000-0 -56706-2 0  9996,2 53539  53.2174 253.1355 0001786  59.6013 238.3309 15.08897342  1308,6917.705,95.434,540.806,538.335,0.0
53539.0,STARLINK-4123,PAYLOAD,2022-10-14 14:00:01,15.08856159,0.0001581,53.2176,250.1437,61.7817,259.3576,-0.0019487999999999,-0.00031183,0.0,0 STARLINK-4123,1 53539U 22101N   22287.58334491 -.00031183  00000-0 -19488-2 0  9999,2 53539  53.2176 250.1437 0001581  61.7817 259.3576 15.08856159  1307,6917.831,95.437,540.79,538.602,0.0
53539.0,STARLINK-4123,PAYLOAD,2022-10-14 20:00:01,15.08837223,0.0001523,53.2174,249.0227,67.31,172.5324,-0.00010421,-1.946e-05,0.0,0 STARLINK-4123,1 53539U 22101N   22287.83334491 -.00001946  00000-0 -10421-3 0  9990,2 53539  53.2174 249.0227 0001523  67.3100 172.5324 15.08837223  1300,6917.889,95.438,540.807,538.7,0.0
